HAWK-A                  
1 43765U 18099H   26196.10718698  .00004044  00000+0  16247-3 0  9990
2 43765  97.3897 247.9822 0034714 184.2471 175.8478 15.24964443417352
HAWK-B                  
1 43794U 18099AN  26196.09655297  .00003480  00000+0  14860-3 0  9997
2 43794  97.3948 247.3278 0031352 202.4031 157.5838 15.23114243417283
HAWK-C                  
1 43799U 18099AT  26196.15093461  .00004898  00000+0  17523-3 0  9991
2 43799  97.3874 249.0766 0040292 183.9581 176.1346 15.28490158418181
HAWK-2C                 
1 47502U 21006CT  26196.18660873  .00003724  00000+0  11192-3 0  9992
2 47502  97.2265 239.9414 0008659 100.8071 259.4148 15.34988981303799
HAWK-2A                 
1 47505U 21006CW  26196.12364323  .00004380  00000+0  13119-3 0  9990
2 47505  97.2308 240.5736 0008168 104.3316 255.8835 15.35005662303780
HAWK-2B                 
1 47508U 21006CZ  26196.11717251  .00004376  00000+0  13049-3 0  9991
2 47508  97.2176 238.8553 0008746 102.7915 257.4307 15.35135482303788
HAWK-3B                 
1 48931U 21059BE  26196.10022499  .00031875  00000+0  24625-3 0  9998
2 48931  97.6630  35.4965 0004459 198.1592 161.9512 15.71859941282239
HAWK-3C                 
1 48948U 21059BX  26196.09990824  .00030130  00000+0  23286-3 0  9995
2 48948  97.6743  41.2297 0004624 198.7902 161.3191 15.71859687282234
HAWK-3A                 
1 48957U 21059CG  26196.09979612  .00032277  00000+0  24931-3 0  9999
2 48957  97.6688  38.4121 0004588 200.8580 159.2496 15.71861573282233
HAWK-5C                 
1 52754U 22057Y   26196.15748927  .00010867  00000+0  18024-3 0  9995
2 52754  97.6613 357.6523 0002807 346.7516  13.3662 15.52324324230688
HAWK-5B                 
1 52756U 22057AA  26196.15730525  .00010744  00000+0  17824-3 0  9993
2 52756  97.6627 356.0058 0003484 332.1861  27.9204 15.52321159230681
HAWK-5A                 
1 52757U 22057AB  26195.96372318  .00010758  00000+0  17848-3 0  9995
2 52757  97.6620 356.6297 0003374 338.7634  21.3477 15.52318484230658
HAWK-6B                 
1 55324U 23011A   26196.18190690  .00002460  00000+0  11008-3 0  9998
2 55324  40.4970 188.7567 0004203 240.4077 119.6314 15.23153117192118
HAWK-6C                 
1 55326U 23011C   26196.18127561  .00002287  00000+0  10294-3 0  9990
2 55326  40.4961 185.5963 0004700 233.4857 126.5520 15.23154648192122
HAWK-6A                 
1 55327U 23011D   26196.18131292  .00002392  00000+0  10730-3 0  9999
2 55327  40.4970 187.2230 0004263 230.8343 129.2088 15.23154209192126
HAWK-7A                 
1 56191U 23054P   26196.14805583  .00003005  00000+0  11393-3 0  9991
2 56191  97.2664  82.7746 0001406 333.8791  26.2378 15.27631920181292
